CCSDS_OMM_VERS = 2.0
CREATION_DATE  = 
ORIGINATOR     = 

OBJECT_NAME    = CZ-2C R/B
OBJECT_ID      = 2022-132E
CENTER_NAME    = EARTH
REF_FRAME      = TEME
TIME_SYSTEM    = UTC
MEAN_ELEMENT_THEORY = SGP/SGP4

EPOCH          = 2025-12-13T13:43:33.316032
MEAN_MOTION    = 15.54888506
ECCENTRICITY   = .00229328
INCLINATION    = 97.2949
RA_OF_ASC_NODE = 343.7866
ARG_OF_PERICENTER = 54.3931
MEAN_ANOMALY   = 305.9456

EPHEMERIS_TYPE = 0
CLASSIFICATION_TYPE = U
NORAD_CAT_ID   = 54039
ELEMENT_SET_NO = 999
REV_AT_EPOCH   = 17696
BSTAR          = .5403786E-3
MEAN_MOTION_DOT = .36506E-3
MEAN_MOTION_DDOT = 0

CCSDS_OMM_VERS = 2.0
CREATION_DATE  = 
ORIGINATOR     = 

OBJECT_NAME    = GSLV R/B
OBJECT_ID      = 2022-138AN
CENTER_NAME    = EARTH
REF_FRAME      = TEME
TIME_SYSTEM    = UTC
MEAN_ELEMENT_THEORY = SGP/SGP4

EPOCH          = 2025-12-13T15:48:04.289472
MEAN_MOTION    = 14.96138275
ECCENTRICITY   = .00241346
INCLINATION    = 87.3829
RA_OF_ASC_NODE = 195.1665
ARG_OF_PERICENTER = 102.4535
MEAN_ANOMALY   = 257.9399

EPHEMERIS_TYPE = 0
CLASSIFICATION_TYPE = U
NORAD_CAT_ID   = 54149
ELEMENT_SET_NO = 999
REV_AT_EPOCH   = 17106
BSTAR          = .36211058E-3
MEAN_MOTION_DOT = .4125E-4
MEAN_MOTION_DDOT = 0

CCSDS_OMM_VERS = 2.0
CREATION_DATE  = 
ORIGINATOR     = 

OBJECT_NAME    = XRISM
OBJECT_ID      = 2023-137A
CENTER_NAME    = EARTH
REF_FRAME      = TEME
TIME_SYSTEM    = UTC
MEAN_ELEMENT_THEORY = SGP/SGP4

EPOCH          = 2025-12-13T16:38:26.120832
MEAN_MOTION    = 15.10352051
ECCENTRICITY   = .00076936
INCLINATION    = 31.0010
RA_OF_ASC_NODE = 119.3858
ARG_OF_PERICENTER = 255.1038
MEAN_ANOMALY   = 104.8748

EPHEMERIS_TYPE = 0
CLASSIFICATION_TYPE = U
NORAD_CAT_ID   = 57800
ELEMENT_SET_NO = 999
REV_AT_EPOCH   = 12477
BSTAR          = .33152984E-3
MEAN_MOTION_DOT = .5673E-4
MEAN_MOTION_DDOT = 0

CCSDS_OMM_VERS = 2.0
CREATION_DATE  = 
ORIGINATOR     = 

OBJECT_NAME    = ACS3
OBJECT_ID      = 2024-077B
CENTER_NAME    = EARTH
REF_FRAME      = TEME
TIME_SYSTEM    = UTC
MEAN_ELEMENT_THEORY = SGP/SGP4

EPOCH          = 2025-12-13T14:53:37.463136
MEAN_MOTION    = 13.85546415
ECCENTRICITY   = .00773677
INCLINATION    = 97.2662
RA_OF_ASC_NODE = 303.0305
ARG_OF_PERICENTER = 336.2616
MEAN_ANOMALY   = 23.4984

EPHEMERIS_TYPE = 0
CLASSIFICATION_TYPE = U
NORAD_CAT_ID   = 59588
ELEMENT_SET_NO = 999
REV_AT_EPOCH   = 8226
BSTAR          = .27052638E-1
MEAN_MOTION_DOT = .317E-3
MEAN_MOTION_DDOT = 0

CCSDS_OMM_VERS = 2.0
CREATION_DATE  = 
ORIGINATOR     = 

OBJECT_NAME    = SZ-21 MODULE
OBJECT_ID      = 2025-246C
CENTER_NAME    = EARTH
REF_FRAME      = TEME
TIME_SYSTEM    = UTC
MEAN_ELEMENT_THEORY = SGP/SGP4

EPOCH          = 2025-12-13T05:48:56.217312
MEAN_MOTION    = 15.62521016
ECCENTRICITY   = .00062862
INCLINATION    = 41.4775
RA_OF_ASC_NODE = 12.9802
ARG_OF_PERICENTER = 263.0797
MEAN_ANOMALY   = 96.9328

EPHEMERIS_TYPE = 0
CLASSIFICATION_TYPE = U
NORAD_CAT_ID   = 66515
ELEMENT_SET_NO = 999
REV_AT_EPOCH   = 452
BSTAR          = .43386364E-3
MEAN_MOTION_DOT = .39667E-3
MEAN_MOTION_DDOT = 0

