CZ-2C R/B               
1 54039U 22132E   25347.57191338  .00036506  00000+0  54038-3 0  9991
2 54039  97.2949 343.7866 0022932  54.3931 305.9456 15.54888506176964
GSLV R/B                
1 54149U 22138AN  25347.65838298  .00004125  00000+0  36211-3 0  9996
2 54149  87.3829 195.1665 0024134 102.4535 257.9399 14.96138275171064
XRISM                   
1 57800U 23137A   25347.69335788  .00005673  00000+0  33153-3 0  9994
2 57800  31.0010 119.3858 0007693 255.1038 104.8748 15.10352051124777
ACS3                    
1 59588U 24077B   25347.62057249  .00031700  00000+0  27053-1 0  9999
2 59588  97.2662 303.0305 0077367 336.2616  23.4984 13.85546415 82260
SZ-21 MODULE            
1 66515U 25246C   25347.24231733  .00039667  00000+0  43386-3 0  9995
2 66515  41.4775  12.9802 0006286 263.0797  96.9328 15.62521016  4528
